#aV2013  9 21  0  0  0.00000000     288 DD+AD WGS84 FIT  NGA
## 1758 518400.00000000   300.00000000 56556 0.0000000000000
+   31     1  2  3  4  5  6  7  8  9 10 11 12 13 14 15 16 17
+         18 19 20 21 22 23 24 25 26 27 28 29 31 32  0  0  0
+          0  0  0  0  0  0  0  0  0  0  0  0  0  0  0  0  0
+          0  0  0  0  0  0  0  0  0  0  0  0  0  0  0  0  0
+          0  0  0  0  0  0  0  0  0  0  0  0  0  0  0  0  0
++         2  2  2  2  2  2  2  2  2  2  2  2  2  2  2  2  2
++         2  2  2  2  2  2  2  2  2  2  2  2  2  2  2  0  0
++         0  0  0  0  0  0  0  0  0  0  0  0  0  0  0  0  0
++         0  0  0  0  0  0  0  0  0  0  0  0  0  0  0  0  0
++         0  0  0  0  0  0  0  0  0  0  0  0  0  0  0  0  0
%c cc cc ccc ccc cccc cccc cccc cccc ccccc ccccc ccccc ccccc
%c cc cc ccc ccc cccc cccc cccc cccc ccccc ccccc ccccc ccccc
%f  0.0000000  0.000000000  0.00000000000  0.000000000000000
%f  0.0000000  0.000000000  0.00000000000  0.000000000000000
%i    0    0    0    0      0      0      0      0         0
%i    0    0    0    0      0      0      0      0         0
/*      NGA, ST. LOUIS,MO.                                  
/*   EPHEMERIS COMPUTED FROM  1 DAYS OF DATA
/*   EPOCHA SMOOTHER  
/* CCCCCCCCCCCCCCCCCCCCCCCCCCCCCCCCCCCCCCCCCCCCCCCCCCCCCCCCC
*  2013  9 21  2 45  0.00000000                                                 
P  1 -13749.752559  22039.525595   5234.172363     76.962702                    
V  1    120.965359  -7275.627903  30887.105258      0.040383                    
P  2  16590.848896  -1103.972341 -20381.623325    452.289480                    
V  2  -8989.264357  25056.896815  -9082.288567      0.017584                    
P  3 -19888.030644  -2273.725296  17012.746241    262.248650                    
V  3 -14367.076229 -17656.620558 -18388.338679      0.050381                    
P  4  11439.382138  12152.290072 -20910.987981      0.985326                    
V  4 -11220.464741  23491.038350   7887.322871      0.006108                    
P  5  26524.483371  -1559.088710  -2010.385570   -399.561006                    
V  5  -2149.292732   3330.043050 -31243.271574      0.001551                    
P  6 -20936.684445  -9246.037154  13851.290705     64.098709                    
V  6  -9395.898364 -14815.420363 -23815.938977      0.188223                    
P  7  -4216.677271  24297.060420   9482.600395    260.918237                    
V  7  -7227.538342   9916.681766 -29113.351944      0.041989                    
P  8   3049.124185  18557.094088  18614.389014      8.584585                    
V  8 -12908.688471  19695.532369 -18233.348400      0.002633                    
P  9   4282.377315  19064.809175  17399.687787    269.940169                    
V  9 -10657.972024  20605.789894 -19491.910311      0.027213                    
P 10  18495.549818  10328.994330 -16577.471804    -95.262038                    
V 10 -20103.171813   3739.798559 -20059.597422     -0.014511                    
P 11 -13078.727199  18248.145543  13537.943289   -421.604763                    
V 11  -2019.041634 -18620.889468  22635.023288     -0.035474                    
P 12  19702.579389 -10825.915378 -14027.534211    157.553928                    
V 12  17843.674528    346.289632  25077.574378      0.021961                    
P 13   2123.829451  22381.746350 -14157.800946     77.898547                    
V 13 -10514.166426 -14440.316421 -24768.868644     -0.037988                    
P 14 -15642.950962 -21358.402868  -2764.221788    215.284804                    
V 14    -31.697721  -4415.710888  31658.991502     -0.009005                    
P 15  12098.452251  -9960.757023  21410.478700   -138.108333                    
V 15  17006.219673  21414.917623    615.342525     -0.018691                    
P 16 -26675.331883    233.099460  -1964.668509   -246.271912                    
V 16   2323.118041  -1858.552447 -31952.412418      0.008195                    
P 17  15425.978713  21751.979049   -930.976714    -23.396393                    
V 17  -1232.455581   2569.581577  31684.107438     -0.038219                    
P 18  -2249.952747 -15991.770486  21513.377219    275.196778                    
V 18  26314.920724  -2877.948288    278.799545      0.020139                    
P 19 -14596.784849   4835.189310  21575.737187   -405.687939                    
V 19 -14090.848536 -23759.247713  -3768.725038     -0.028126                    
P 20 -14814.406742  14915.911891 -16365.952438    123.861567                    
V 20 -20712.572100    972.512627  19925.063191      0.026172                    
P 21    222.075190 -23526.505609  12400.893144   -319.714423                    
V 21   9025.239689 -12539.626352 -25653.526946     -0.019100                    
P 22 -15152.749097 -12222.314844  18331.093729    185.791361                    
V 22  22598.299398  -4408.812388  15767.829927      0.019473                    
P 23  -5963.085731  16100.802704 -20064.791916     46.308031                    
V 23 -16122.925781 -20207.489995 -11771.915798     -0.034723                    
P 24  15340.545847 -19671.530577   9039.226889    -14.128290                    
V 24  -2078.305702  11627.705457  28860.350584     -0.007127                    
P 25   6425.465947 -15067.406921 -20946.645234    149.490640                    
V 25  26354.756733  -2284.178830   9850.221931      0.040627                    
P 26  17921.968069   6199.822624  18089.344718    200.145404                    
V 26  11289.452142  21373.294955 -17577.834491      0.184992                    
P 27 -19403.547434  -6204.219719  17038.105990    -38.980018                    
V 27 -11462.304023 -18454.200017 -19746.778907     -0.044788                    
P 28  11238.374845  13220.926347  20747.054164    294.263739                    
V 28 -24854.124334   1870.946539  12466.617197      0.031394                    
P 29   -419.464931 -20987.384906 -16254.858480    472.369007                    
V 29  12862.464573  16295.744072 -21280.788442      0.032184                    
P 31 -11101.307132 -10381.198182 -21577.175123    326.308796                    
V 31  12335.517184 -24905.306214   5865.848247      0.007791                    
P 32 -23051.536850   7688.754333  -9946.668882   -547.166420                    
V 32 -13064.387235  -2963.817193  28210.792471      0.029649                    
EOF
